[
  {
    "OBJECT_NAME": "STARLINK-31610",
    "OBJECT_ID": "24068U",
    "EPOCH": "2025-11-11T03:16:43.972320",
    "MEAN_MOTION": 15.27581771,
    "ECCENTRICITY": 0.0001151,
    "INCLINATION": 43.0047,
    "RA_OF_ASC_NODE": 343.8619,
    "ARG_OF_PERICENTER": 264.0037,
    "MEAN_ANOMALY": 96.0684,
    "EPHEMERIS_TYPE": 0,
    "CLASSIFICATION_TYPE": "U",
    "NORAD_CAT_ID": 59473,
    "ELEMENT_SET_NO": 999,
    "REV_AT_EPOCH": 9039,
    "BSTAR": 0.0,
    "MEAN_MOTION_DOT": -5.527e-05,
    "MEAN_MOTION_DDOT": 0.0,
    "TLE_LINE1": "1 59473U 24068U   25315.13662005 -.00005527  00000+0 -19145-3 0  9990",
    "TLE_LINE2": "2 59473  43.0047 343.8619 0001151 264.0037  96.0684 15.27581771 90390",
    "COMMENT": "Grouped by shell and plane from TLE"
  },
  {
    "OBJECT_NAME": "STARLINK-31566",
    "OBJECT_ID": "24068W",
    "EPOCH": "2025-11-11T03:22:15.477024",
    "MEAN_MOTION": 15.2761315,
    "ECCENTRICITY": 8.53e-05,
    "INCLINATION": 43.0033,
    "RA_OF_ASC_NODE": 343.8876,
    "ARG_OF_PERICENTER": 270.7134,
    "MEAN_ANOMALY": 89.362,
    "EPHEMERIS_TYPE": 0,
    "CLASSIFICATION_TYPE": "U",
    "NORAD_CAT_ID": 59475,
    "ELEMENT_SET_NO": 999,
    "REV_AT_EPOCH": 9039,
    "BSTAR": 0.0,
    "MEAN_MOTION_DOT": -8.052e-05,
    "MEAN_MOTION_DDOT": 0.0,
    "TLE_LINE1": "1 59475U 24068W   25315.14045691 -.00008052  00000+0 -28312-3 0  9991",
    "TLE_LINE2": "2 59475  43.0033 343.8876 0000853 270.7134  89.3620 15.27613150 90394",
    "COMMENT": "Grouped by shell and plane from TLE"
  },
  {
    "OBJECT_NAME": "STARLINK-31515",
    "OBJECT_ID": "24068X",
    "EPOCH": "2025-11-11T01:59:15.105408",
    "MEAN_MOTION": 15.27578586,
    "ECCENTRICITY": 0.0002001,
    "INCLINATION": 43.0074,
    "RA_OF_ASC_NODE": 344.3197,
    "ARG_OF_PERICENTER": 269.3545,
    "MEAN_ANOMALY": 90.7078,
    "EPHEMERIS_TYPE": 0,
    "CLASSIFICATION_TYPE": "U",
    "NORAD_CAT_ID": 59476,
    "ELEMENT_SET_NO": 999,
    "REV_AT_EPOCH": 9038,
    "BSTAR": 0.0,
    "MEAN_MOTION_DOT": -5.11e-05,
    "MEAN_MOTION_DDOT": 0.0,
    "TLE_LINE1": "1 59476U 24068X   25315.08281372 -.00005110  00000+0 -17630-3 0  9996",
    "TLE_LINE2": "2 59476  43.0074 344.3197 0002001 269.3545  90.7078 15.27578586 90384",
    "COMMENT": "Grouped by shell and plane from TLE"
  },
  {
    "OBJECT_NAME": "STARLINK-31770",
    "OBJECT_ID": "24080A",
    "EPOCH": "2025-11-11T02:33:40.119840",
    "MEAN_MOTION": 15.27569421,
    "ECCENTRICITY": 0.0001,
    "INCLINATION": 43.0,
    "RA_OF_ASC_NODE": 347.8843,
    "ARG_OF_PERICENTER": 279.1287,
    "MEAN_ANOMALY": 80.9451,
    "EPHEMERIS_TYPE": 0,
    "CLASSIFICATION_TYPE": "U",
    "NORAD_CAT_ID": 59601,
    "ELEMENT_SET_NO": 999,
    "REV_AT_EPOCH": 8760,
    "BSTAR": 0.00034951,
    "MEAN_MOTION_DOT": 9.365e-05,
    "MEAN_MOTION_DDOT": 0.0,
    "TLE_LINE1": "1 59601U 24080A   25315.10671435  .00009365  00000+0  34951-3 0  9995",
    "TLE_LINE2": "2 59601  43.0000 347.8843 0001000 279.1287  80.9451 15.27569421 87604",
    "COMMENT": "Grouped by shell and plane from TLE"
  },
  {
    "OBJECT_NAME": "STARLINK-31778",
    "OBJECT_ID": "24080B",
    "EPOCH": "2025-11-11T02:36:12.716928",
    "MEAN_MOTION": 15.27551237,
    "ECCENTRICITY": 9.39e-05,
    "INCLINATION": 43.0007,
    "RA_OF_ASC_NODE": 344.4426,
    "ARG_OF_PERICENTER": 282.8969,
    "MEAN_ANOMALY": 77.1778,
    "EPHEMERIS_TYPE": 0,
    "CLASSIFICATION_TYPE": "U",
    "NORAD_CAT_ID": 59602,
    "ELEMENT_SET_NO": 999,
    "REV_AT_EPOCH": 8643,
    "BSTAR": 0.00027068,
    "MEAN_MOTION_DOT": 7.187e-05,
    "MEAN_MOTION_DDOT": 0.0,
    "TLE_LINE1": "1 59602U 24080B   25315.10848052  .00007187  00000+0  27068-3 0  9998",
    "TLE_LINE2": "2 59602  43.0007 344.4426 0000939 282.8969  77.1778 15.27551237 86436",
    "COMMENT": "Grouped by shell and plane from TLE"
  },
  {
    "OBJECT_NAME": "STARLINK-31765",
    "OBJECT_ID": "24080D",
    "EPOCH": "2025-11-11T01:51:48.000096",
    "MEAN_MOTION": 15.27570236,
    "ECCENTRICITY": 0.0001494,
    "INCLINATION": 43.0017,
    "RA_OF_ASC_NODE": 344.2081,
    "ARG_OF_PERICENTER": 247.8582,
    "MEAN_ANOMALY": 112.2111,
    "EPHEMERIS_TYPE": 0,
    "CLASSIFICATION_TYPE": "U",
    "NORAD_CAT_ID": 59604,
    "ELEMENT_SET_NO": 999,
    "REV_AT_EPOCH": 8643,
    "BSTAR": 0.0,
    "MEAN_MOTION_DOT": -2.254e-05,
    "MEAN_MOTION_DDOT": 0.0,
    "TLE_LINE1": "1 59604U 24080D   25315.07763889 -.00002254  00000+0 -72422-4 0  9997",
    "TLE_LINE2": "2 59604  43.0017 344.2081 0001494 247.8582 112.2111 15.27570236 86435",
    "COMMENT": "Grouped by shell and plane from TLE"
  },
  {
    "OBJECT_NAME": "STARLINK-31767",
    "OBJECT_ID": "24080E",
    "EPOCH": "2025-11-11T02:22:33.828096",
    "MEAN_MOTION": 15.27580022,
    "ECCENTRICITY": 7.94e-05,
    "INCLINATION": 42.9995,
    "RA_OF_ASC_NODE": 347.8295,
    "ARG_OF_PERICENTER": 188.3338,
    "MEAN_ANOMALY": 171.7501,
    "EPHEMERIS_TYPE": 0,
    "CLASSIFICATION_TYPE": "U",
    "NORAD_CAT_ID": 59605,
    "ELEMENT_SET_NO": 999,
    "REV_AT_EPOCH": 8639,
    "BSTAR": 6.575299999999999e-05,
    "MEAN_MOTION_DOT": 1.548e-05,
    "MEAN_MOTION_DDOT": 0.0,
    "TLE_LINE1": "1 59605U 24080E   25315.09900264  .00001548  00000+0  65753-4 0  9992",
    "TLE_LINE2": "2 59605  42.9995 347.8295 0000794 188.3338 171.7501 15.27580022 86397",
    "COMMENT": "Grouped by shell and plane from TLE"
  },
  {
    "OBJECT_NAME": "STARLINK-31585",
    "OBJECT_ID": "24080H",
    "EPOCH": "2025-11-11T02:43:23.783808",
    "MEAN_MOTION": 15.27576484,
    "ECCENTRICITY": 0.0001929,
    "INCLINATION": 43.002,
    "RA_OF_ASC_NODE": 343.6141,
    "ARG_OF_PERICENTER": 277.7733,
    "MEAN_ANOMALY": 82.29,
    "EPHEMERIS_TYPE": 0,
    "CLASSIFICATION_TYPE": "U",
    "NORAD_CAT_ID": 59608,
    "ELEMENT_SET_NO": 999,
    "REV_AT_EPOCH": 8645,
    "BSTAR": 0.0,
    "MEAN_MOTION_DOT": -8.75e-06,
    "MEAN_MOTION_DDOT": 0.0,
    "TLE_LINE1": "1 59608U 24080H   25315.11346972 -.00000875  00000+0 -22249-4 0  9995",
    "TLE_LINE2": "2 59608  43.0020 343.6141 0001929 277.7733  82.2900 15.27576484 86451",
    "COMMENT": "Grouped by shell and plane from TLE"
  },
  {
    "OBJECT_NAME": "STARLINK-31667",
    "OBJECT_ID": "24080J",
    "EPOCH": "2025-11-11T02:48:56.990592",
    "MEAN_MOTION": 15.27573148,
    "ECCENTRICITY": 8.43e-05,
    "INCLINATION": 43.0028,
    "RA_OF_ASC_NODE": 343.6381,
    "ARG_OF_PERICENTER": 280.6262,
    "MEAN_ANOMALY": 79.4495,
    "EPHEMERIS_TYPE": 0,
    "CLASSIFICATION_TYPE": "U",
    "NORAD_CAT_ID": 59609,
    "ELEMENT_SET_NO": 999,
    "REV_AT_EPOCH": 8644,
    "BSTAR": 0.00010127999999999999,
    "MEAN_MOTION_DOT": 2.525e-05,
    "MEAN_MOTION_DDOT": 0.0,
    "TLE_LINE1": "1 59609U 24080J   25315.11732628  .00002525  00000+0  10128-3 0  9997",
    "TLE_LINE2": "2 59609  43.0028 343.6381 0000843 280.6262  79.4495 15.27573148 86440",
    "COMMENT": "Grouped by shell and plane from TLE"
  },
  {
    "OBJECT_NAME": "STARLINK-31729",
    "OBJECT_ID": "24080K",
    "EPOCH": "2025-11-10T18:38:01.597632",
    "MEAN_MOTION": 15.27563382,
    "ECCENTRICITY": 0.0001588,
    "INCLINATION": 43.0015,
    "RA_OF_ASC_NODE": 346.2471,
    "ARG_OF_PERICENTER": 266.4127,
    "MEAN_ANOMALY": 93.6543,
    "EPHEMERIS_TYPE": 0,
    "CLASSIFICATION_TYPE": "U",
    "NORAD_CAT_ID": 59610,
    "ELEMENT_SET_NO": 999,
    "REV_AT_EPOCH": 8638,
    "BSTAR": 0.0,
    "MEAN_MOTION_DOT": -3.88e-05,
    "MEAN_MOTION_DDOT": 0.0,
    "TLE_LINE1": "1 59610U 24080K   25314.77640738 -.00003880  00000+0 -13161-3 0  9997",
    "TLE_LINE2": "2 59610  43.0015 346.2471 0001588 266.4127  93.6543 15.27563382 86380",
    "COMMENT": "Grouped by shell and plane from TLE"
  },
  {
    "OBJECT_NAME": "STARLINK-31448",
    "OBJECT_ID": "24080L",
    "EPOCH": "2025-11-11T02:06:36.821088",
    "MEAN_MOTION": 15.27557763,
    "ECCENTRICITY": 0.000134,
    "INCLINATION": 43.0018,
    "RA_OF_ASC_NODE": 344.2877,
    "ARG_OF_PERICENTER": 276.2467,
    "MEAN_ANOMALY": 83.8232,
    "EPHEMERIS_TYPE": 0,
    "CLASSIFICATION_TYPE": "U",
    "NORAD_CAT_ID": 59611,
    "ELEMENT_SET_NO": 999,
    "REV_AT_EPOCH": 8643,
    "BSTAR": 0.00048862,
    "MEAN_MOTION_DOT": 0.00013199,
    "MEAN_MOTION_DDOT": 0.0,
    "TLE_LINE1": "1 59611U 24080L   25315.08792617  .00013199  00000+0  48862-3 0  9995",
    "TLE_LINE2": "2 59611  43.0018 344.2877 0001340 276.2467  83.8232 15.27557763 86432",
    "COMMENT": "Grouped by shell and plane from TLE"
  },
  {
    "OBJECT_NAME": "STARLINK-31748",
    "OBJECT_ID": "24080M",
    "EPOCH": "2025-11-11T01:38:49.335648",
    "MEAN_MOTION": 15.27613024,
    "ECCENTRICITY": 6.2e-05,
    "INCLINATION": 43.0025,
    "RA_OF_ASC_NODE": 344.1383,
    "ARG_OF_PERICENTER": 295.6629,
    "MEAN_ANOMALY": 64.4159,
    "EPHEMERIS_TYPE": 0,
    "CLASSIFICATION_TYPE": "U",
    "NORAD_CAT_ID": 59612,
    "ELEMENT_SET_NO": 999,
    "REV_AT_EPOCH": 8760,
    "BSTAR": 0.0,
    "MEAN_MOTION_DOT": -0.00015514,
    "MEAN_MOTION_DDOT": 0.0,
    "TLE_LINE1": "1 59612U 24080M   25315.06862657 -.00015514  00000+0 -55488-3 0  9993",
    "TLE_LINE2": "2 59612  43.0025 344.1383 0000620 295.6629  64.4159 15.27613024 87603",
    "COMMENT": "Grouped by shell and plane from TLE"
  },
  {
    "OBJECT_NAME": "STARLINK-31762",
    "OBJECT_ID": "24080P",
    "EPOCH": "2025-11-11T03:51:10.259424",
    "MEAN_MOTION": 15.27565639,
    "ECCENTRICITY": 0.0001777,
    "INCLINATION": 42.9981,
    "RA_OF_ASC_NODE": 347.4305,
    "ARG_OF_PERICENTER": 283.604,
    "MEAN_ANOMALY": 76.4613,
    "EPHEMERIS_TYPE": 0,
    "CLASSIFICATION_TYPE": "U",
    "NORAD_CAT_ID": 59614,
    "ELEMENT_SET_NO": 999,
    "REV_AT_EPOCH": 8640,
    "BSTAR": 0.00027565,
    "MEAN_MOTION_DOT": 7.327e-05,
    "MEAN_MOTION_DDOT": 0.0,
    "TLE_LINE1": "1 59614U 24080P   25315.16053541  .00007327  00000+0  27565-3 0  9996",
    "TLE_LINE2": "2 59614  42.9981 347.4305 0001777 283.6040  76.4613 15.27565639 86405",
    "COMMENT": "Grouped by shell and plane from TLE"
  }
]